[{"OBJECT_NAME":"SCS-01 H","OBJECT_ID":"2025-100H","EPOCH":"2026-03-09T23:19:05.376864","MEAN_MOTION":15.31767757,"ECCENTRICITY":0.00071581,"INCLINATION":97.3749,"RA_OF_ASC_NODE":145.8085,"ARG_OF_PERICENTER":277.8492,"MEAN_ANOMALY":82.1937,"EPHEMERIS_TYPE":0,"CLASSIFICATION_TYPE":"U","NORAD_CAT_ID":63989,"ELEMENT_SET_NO":999,"REV_AT_EPOCH":4566,"BSTAR":0.0011436254,"MEAN_MOTION_DOT":0.00035149,"MEAN_MOTION_DDOT":0},{"OBJECT_NAME":"STARLINK-36088","OBJECT_ID":"2025-286S","EPOCH":"2026-03-09T02:05:04.348032","MEAN_MOTION":15.30189307,"ECCENTRICITY":0.00011706,"INCLINATION":53.1617,"RA_OF_ASC_NODE":1.3021,"ARG_OF_PERICENTER":59.9837,"MEAN_ANOMALY":300.128,"EPHEMERIS_TYPE":0,"CLASSIFICATION_TYPE":"U","NORAD_CAT_ID":66941,"ELEMENT_SET_NO":999,"REV_AT_EPOCH":1532,"BSTAR":0.00075227699,"MEAN_MOTION_DOT":0.0002198,"MEAN_MOTION_DDOT":0}]
